{
  "type": "FeatureCollection",
  "features": [
    {
      "type": "Feature",
      "properties": {
        "norad_id": 29486,
        "name": "GPS BIIRM-2 (PRN 31)",
        "group": "gps-ops",
        "lat": 54.66145404020451,
        "lon": -113.43996966026106,
        "alt_km": 19947.521146869985,
        "timestamp": "2025-12-23T14:49:09.649031+00:00",
        "meta_object_name": "GPS BIIRM-2 (PRN 31)",
        "meta_object_id": "2006-042A",
        "meta_epoch": "2025-12-21T12:25:39.335232",
        "meta_mean_motion": 2.00553827,
        "meta_eccentricity": 0.01073004,
        "meta_inclination": 54.6951,
        "meta_ra_of_asc_node": 158.3926,
        "meta_arg_of_pericenter": 52.1628,
        "meta_mean_anomaly": 320.0686,
        "meta_ephemeris_type": 0,
        "meta_classification_type": "U",
        "meta_norad_cat_id": 29486,
        "meta_element_set_no": 999,
        "meta_rev_at_epoch": 14083,
        "meta_bstar": 0,
        "meta_mean_motion_dot": 7.1e-07,
        "meta_mean_motion_ddot": 0,
        "tle_line1": "1 29486U 06042A   25355.51781638  .00000071  00000+0  00000+0 0  9996",
        "tle_line2": "2 29486  54.6951 158.3926 0107300  52.1628 320.0686  2.00553827140833"
      },
      "geometry": {
        "type": "Point",
        "coordinates": [
          -113.43996966026106,
          54.66145404020451
        ]
      }
    },
    {
      "type": "Feature",
      "properties": {
        "norad_id": 29601,
        "name": "GPS BIIRM-3 (PRN 12)",
        "group": "gps-ops",
        "lat": 26.105838169978984,
        "lon": 20.877970926582112,
        "alt_km": 20059.515253607235,
        "timestamp": "2025-12-23T14:49:09.649045+00:00",
        "meta_object_name": "GPS BIIRM-3 (PRN 12)",
        "meta_object_id": "2006-052A",
        "meta_epoch": "2025-12-22T22:00:58.169952",
        "meta_mean_motion": 2.00574295,
        "meta_eccentricity": 0.0087996,
        "meta_inclination": 54.9685,
        "meta_ra_of_asc_node": 220.9942,
        "meta_arg_of_pericenter": 87.562,
        "meta_mean_anomaly": 273.5353,
        "meta_ephemeris_type": 0,
        "meta_classification_type": "U",
        "meta_norad_cat_id": 29601,
        "meta_element_set_no": 999,
        "meta_rev_at_epoch": 13987,
        "meta_bstar": 0,
        "meta_mean_motion_dot": 6.8e-07,
        "meta_mean_motion_ddot": 0,
        "tle_line1": "1 29601U 06052A   25356.91733993  .00000068  00000+0  00000+0 0  9998",
        "tle_line2": "2 29601  54.9685 220.9942 0087996  87.5620 273.5353  2.00574295139872"
      },
      "geometry": {
        "type": "Point",
        "coordinates": [
          20.877970926582112,
          26.105838169978984
        ]
      }
    },
    {
      "type": "Feature",
      "properties": {
        "norad_id": 32260,
        "name": "GPS BIIRM-4 (PRN 15)",
        "group": "gps-ops",
        "lat": -51.171128394448886,
        "lon": 22.73383962137599,
        "alt_km": 20595.010304365995,
        "timestamp": "2025-12-23T14:49:09.649059+00:00",
        "meta_object_name": "GPS BIIRM-4 (PRN 15)",
        "meta_object_id": "2007-047A",
        "meta_epoch": "2025-12-22T05:26:06.407520",
        "meta_mean_motion": 2.00564155,
        "meta_eccentricity": 0.0163987,
        "meta_inclination": 53.9614,
        "meta_ra_of_asc_node": 87.3666,
        "meta_arg_of_pericenter": 85.3577,
        "meta_mean_anomaly": 276.5274,
        "meta_ephemeris_type": 0,
        "meta_classification_type": "U",
        "meta_norad_cat_id": 32260,
        "meta_element_set_no": 999,
        "meta_rev_at_epoch": 13326,
        "meta_bstar": 0,
        "meta_mean_motion_dot": -1.3e-07,
        "meta_mean_motion_ddot": 0,
        "tle_line1": "1 32260U 07047A   25356.22646305 -.00000013  00000+0  00000+0 0  9993",
        "tle_line2": "2 32260  53.9614  87.3666 0163987  85.3577 276.5274  2.00564155133264"
      },
      "geometry": {
        "type": "Point",
        "coordinates": [
          22.73383962137599,
          -51.171128394448886
        ]
      }
    },
    {
      "type": "Feature",
      "properties": {
        "norad_id": 32384,
        "name": "GPS BIIRM-5 (PRN 29)",
        "group": "gps-ops",
        "lat": 42.63605345309858,
        "lon": -39.002884254703666,
        "alt_km": 20200.309003133516,
        "timestamp": "2025-12-23T14:49:09.649072+00:00",
        "meta_object_name": "GPS BIIRM-5 (PRN 29)",
        "meta_object_id": "2007-062A",
        "meta_epoch": "2025-12-19T04:08:10.010976",
        "meta_mean_motion": 2.00577702,
        "meta_eccentricity": 0.00322663,
        "meta_inclination": 55.1765,
        "meta_ra_of_asc_node": 281.388,
        "meta_arg_of_pericenter": 162.2119,
        "meta_mean_anomaly": 283.9132,
        "meta_ephemeris_type": 0,
        "meta_classification_type": "U",
        "meta_norad_cat_id": 32384,
        "meta_element_set_no": 999,
        "meta_rev_at_epoch": 13190,
        "meta_bstar": 0,
        "meta_mean_motion_dot": -3.8e-07,
        "meta_mean_motion_ddot": 0,
        "tle_line1": "1 32384U 07062A   25353.17233809 -.00000038  00000+0  00000+0 0  9996",
        "tle_line2": "2 32384  55.1765 281.3880 0032266 162.2119 283.9132  2.00577702131904"
      },
      "geometry": {
        "type": "Point",
        "coordinates": [
          -39.002884254703666,
          42.63605345309858
        ]
      }
    },
    {
      "type": "Feature",
      "properties": {
        "norad_id": 32711,
        "name": "GPS BIIRM-6 (PRN 07)",
        "group": "gps-ops",
        "lat": -14.375410776952162,
        "lon": 146.3785217983105,
        "alt_km": 20240.29966217138,
        "timestamp": "2025-12-23T14:49:09.649085+00:00",
        "meta_object_name": "GPS BIIRM-6 (PRN 07)",
        "meta_object_id": "2008-012A",
        "meta_epoch": "2025-12-21T15:33:12.168000",
        "meta_mean_motion": 2.00566008,
        "meta_eccentricity": 0.02028329,
        "meta_inclination": 54.478,
        "meta_ra_of_asc_node": 157.0174,
        "meta_arg_of_pericenter": 245.0507,
        "meta_mean_anomaly": 112.8153,
        "meta_ephemeris_type": 0,
        "meta_classification_type": "U",
        "meta_norad_cat_id": 32711,
        "meta_element_set_no": 999,
        "meta_rev_at_epoch": 13019,
        "meta_bstar": 0,
        "meta_mean_motion_dot": 7e-07,
        "meta_mean_motion_ddot": 0,
        "tle_line1": "1 32711U 08012A   25355.64805750  .00000070  00000+0  00000+0 0  9995",
        "tle_line2": "2 32711  54.4780 157.0174 0202832 245.0507 112.8153  2.00566008130191"
      },
      "geometry": {
        "type": "Point",
        "coordinates": [
          146.3785217983105,
          -14.375410776952162
        ]
      }
    },
    {
      "type": "Feature",
      "properties": {
        "norad_id": 35752,
        "name": "GPS BIIRM-8 (PRN 05)",
        "group": "gps-ops",
        "lat": -0.711530416624774,
        "lon": 33.8926959251941,
        "alt_km": 20163.98085937243,
        "timestamp": "2025-12-23T14:49:09.649099+00:00",
        "meta_object_name": "GPS BIIRM-8 (PRN 05)",
        "meta_object_id": "2009-043A",
        "meta_epoch": "2025-12-22T09:03:38.471040",
        "meta_mean_motion": 2.00565138,
        "meta_eccentricity": 0.00515987,
        "meta_inclination": 56.0976,
        "meta_ra_of_asc_node": 34.4031,
        "meta_arg_of_pericenter": 81.7402,
        "meta_mean_anomaly": 102.7505,
        "meta_ephemeris_type": 0,
        "meta_classification_type": "U",
        "meta_norad_cat_id": 35752,
        "meta_element_set_no": 999,
        "meta_rev_at_epoch": 11981,
        "meta_bstar": 0,
        "meta_mean_motion_dot": -5.3e-07,
        "meta_mean_motion_ddot": 0,
        "tle_line1": "1 35752U 09043A   25356.37752860 -.00000053  00000+0  00000+0 0  9994",
        "tle_line2": "2 35752  56.0976  34.4031 0051598  81.7402 102.7505  2.00565138119812"
      },
      "geometry": {
        "type": "Point",
        "coordinates": [
          33.8926959251941,
          -0.711530416624774
        ]
      }
    },
    {
      "type": "Feature",
      "properties": {
        "norad_id": 36585,
        "name": "GPS BIIF-1  (PRN 25)",
        "group": "gps-ops",
        "lat": 45.28248021832346,
        "lon": -10.921213813269432,
        "alt_km": 19975.858321885622,
        "timestamp": "2025-12-23T14:49:09.649111+00:00",
        "meta_object_name": "GPS BIIF-1  (PRN 25)",
        "meta_object_id": "2010-022A",
        "meta_epoch": "2025-12-23T05:44:03.055200",
        "meta_mean_motion": 2.00553739,
        "meta_eccentricity": 0.01265225,
        "meta_inclination": 54.2985,
        "meta_ra_of_asc_node": 215.6505,
        "meta_arg_of_pericenter": 65.2085,
        "meta_mean_anomaly": 139.2805,
        "meta_ephemeris_type": 0,
        "meta_classification_type": "U",
        "meta_norad_cat_id": 36585,
        "meta_element_set_no": 999,
        "meta_rev_at_epoch": 11406,
        "meta_bstar": 0,
        "meta_mean_motion_dot": 7.2e-07,
        "meta_mean_motion_ddot": 0,
        "tle_line1": "1 36585U 10022A   25357.23892425  .00000072  00000+0  00000+0 0  9996",
        "tle_line2": "2 36585  54.2985 215.6505 0126522  65.2085 139.2805  2.00553739114064"
      },
      "geometry": {
        "type": "Point",
        "coordinates": [
          -10.921213813269432,
          45.28248021832346
        ]
      }
    }
  ]
}